[{"OBJECT_NAME":"TIANQI-39","OBJECT_ID":"2026-010C","EPOCH":"2026-03-08T16:50:36.580128","MEAN_MOTION":14.04334884,"ECCENTRICITY":0.00155129,"INCLINATION":44.9813,"RA_OF_ASC_NODE":168.7554,"ARG_OF_PERICENTER":221.5775,"MEAN_ANOMALY":138.3881,"EPHEMERIS_TYPE":0,"CLASSIFICATION_TYPE":"U","NORAD_CAT_ID":67478,"ELEMENT_SET_NO":999,"REV_AT_EPOCH":732,"BSTAR":0.00014701681,"MEAN_MOTION_DOT":1.06e-6,"MEAN_MOTION_DDOT":0},{"OBJECT_NAME":"DELTA 1 R\/B(1)","OBJECT_ID":"1977-005B","EPOCH":"2026-03-09T20:13:05.479392","MEAN_MOTION":13.96650188,"ECCENTRICITY":0.04094061,"INCLINATION":28.0106,"RA_OF_ASC_NODE":261.539,"ARG_OF_PERICENTER":304.0174,"MEAN_ANOMALY":52.2137,"EPHEMERIS_TYPE":0,"CLASSIFICATION_TYPE":"U","NORAD_CAT_ID":9786,"ELEMENT_SET_NO":999,"REV_AT_EPOCH":47850,"BSTAR":8.1594002e-5,"MEAN_MOTION_DOT":3.6e-6,"MEAN_MOTION_DDOT":0}]
